[{"OBJECT_NAME":"FORMOSAT 7-5","OBJECT_ID":"2019-036V","EPOCH":"2026-03-09T18:30:55.543680","MEAN_MOTION":14.96027232,"ECCENTRICITY":8.716e-5,"INCLINATION":23.9972,"RA_OF_ASC_NODE":218.3817,"ARG_OF_PERICENTER":89.5193,"MEAN_ANOMALY":270.5408,"EPHEMERIS_TYPE":0,"CLASSIFICATION_TYPE":"U","NORAD_CAT_ID":44358,"ELEMENT_SET_NO":999,"REV_AT_EPOCH":36744,"BSTAR":0.00030916132,"MEAN_MOTION_DOT":3.857e-5,"MEAN_MOTION_DDOT":0},{"OBJECT_NAME":"STARLINK-34577","OBJECT_ID":"2025-142Z","EPOCH":"2026-03-09T20:22:49.679904","MEAN_MOTION":14.95911073,"ECCENTRICITY":0.0002346,"INCLINATION":70.0008,"RA_OF_ASC_NODE":314.0623,"ARG_OF_PERICENTER":271.1669,"MEAN_ANOMALY":88.922,"EPHEMERIS_TYPE":0,"CLASSIFICATION_TYPE":"U","NORAD_CAT_ID":64719,"ELEMENT_SET_NO":999,"REV_AT_EPOCH":3951,"BSTAR":0.00017350703,"MEAN_MOTION_DOT":1.855e-5,"MEAN_MOTION_DDOT":0}]
